[{"OBJECT_NAME":"SHIYAN-6 01 (SY-6 01)","OBJECT_ID":"2018-094B","EPOCH":"2026-03-09T23:04:36.967872","MEAN_MOTION":15.28649156,"ECCENTRICITY":0.00144834,"INCLINATION":97.3669,"RA_OF_ASC_NODE":84.0964,"ARG_OF_PERICENTER":135.6758,"MEAN_ANOMALY":224.5644,"EPHEMERIS_TYPE":0,"CLASSIFICATION_TYPE":"U","NORAD_CAT_ID":43711,"ELEMENT_SET_NO":999,"REV_AT_EPOCH":40632,"BSTAR":0.00024768444,"MEAN_MOTION_DOT":6.847e-5,"MEAN_MOTION_DDOT":0},{"OBJECT_NAME":"STARLINK-33729","OBJECT_ID":"2025-083P","EPOCH":"2026-03-09T04:05:31.867008","MEAN_MOTION":15.2759346,"ECCENTRICITY":9.936e-5,"INCLINATION":43.0024,"RA_OF_ASC_NODE":8.4706,"ARG_OF_PERICENTER":267.3311,"MEAN_ANOMALY":92.7427,"EPHEMERIS_TYPE":0,"CLASSIFICATION_TYPE":"U","NORAD_CAT_ID":63647,"ELEMENT_SET_NO":999,"REV_AT_EPOCH":4998,"BSTAR":0.0013893897,"MEAN_MOTION_DOT":0.00038185,"MEAN_MOTION_DDOT":0}]
